[{"OBJECT_NAME":"EXO-0","OBJECT_ID":"2023-174DK","EPOCH":"2026-03-09T17:03:04.419648","MEAN_MOTION":15.32821991,"ECCENTRICITY":0.00098779,"INCLINATION":97.3864,"RA_OF_ASC_NODE":148.9039,"ARG_OF_PERICENTER":157.1125,"MEAN_ANOMALY":203.0559,"EPHEMERIS_TYPE":0,"CLASSIFICATION_TYPE":"U","NORAD_CAT_ID":59175,"ELEMENT_SET_NO":999,"REV_AT_EPOCH":12979,"BSTAR":0.00036716083,"MEAN_MOTION_DOT":0.00011582,"MEAN_MOTION_DDOT":0},{"OBJECT_NAME":"STARLINK-36088","OBJECT_ID":"2025-286S","EPOCH":"2026-03-09T02:05:04.348032","MEAN_MOTION":15.30189307,"ECCENTRICITY":0.00011706,"INCLINATION":53.1617,"RA_OF_ASC_NODE":1.3021,"ARG_OF_PERICENTER":59.9837,"MEAN_ANOMALY":300.128,"EPHEMERIS_TYPE":0,"CLASSIFICATION_TYPE":"U","NORAD_CAT_ID":66941,"ELEMENT_SET_NO":999,"REV_AT_EPOCH":1532,"BSTAR":0.00075227699,"MEAN_MOTION_DOT":0.0002198,"MEAN_MOTION_DDOT":0}]
